{"type": "FeatureCollection", "features": [{"type": "Feature", "properties": {"norad_id": 24946, "name": "IRIDIUM 33", "group": "iridium-33-debris", "lat": 85.66559501801156, "lon": 120.91458902136331, "alt_km": 766.7193202910612, "timestamp": "2025-12-21T18:54:58.880439+00:00", "meta": {"OBJECT_NAME": "IRIDIUM 33", "OBJECT_ID": "1997-051C", "EPOCH": "2025-12-21T13:29:19.791168", "MEAN_MOTION": 14.35043038, "ECCENTRICITY": 0.00080908, "INCLINATION": 86.3862, "RA_OF_ASC_NODE": 64.5184, "ARG_OF_PERICENTER": 171.0601, "MEAN_ANOMALY": 189.0741, "EPHEMERIS_TYPE": 0, "CLASSIFICATION_TYPE": "U", "NORAD_CAT_ID": 24946, "ELEMENT_SET_NO": 999, "REV_AT_EPOCH": 47961, "BSTAR": 9.2433948e-05, "MEAN_MOTION_DOT": 2.83e-06, "MEAN_MOTION_DDOT": 0}, "tle": {"line1": "1 24946U 97051C   25355.56203462  .00000283  00000+0  92434-4 0  9993", "line2": "2 24946  86.3862  64.5184 0008090 171.0601 189.0741 14.35043038479619"}}, "geometry": {"type": "Point", "coordinates": [120.91458902136331, 85.66559501801156]}}, {"type": "Feature", "properties": {"norad_id": 33773, "name": "IRIDIUM 33 DEB", "group": "iridium-33-debris", "lat": -47.72101948669447, "lon": 52.78494883729142, "alt_km": 763.7678837140074, "timestamp": "2025-12-21T18:54:58.880467+00:00", "meta": {"OBJECT_NAME": "IRIDIUM 33 DEB", "OBJECT_ID": "1997-051L", "EPOCH": "2025-12-21T14:08:46.577472", "MEAN_MOTION": 14.43274227, "ECCENTRICITY": 0.0013137, "INCLINATION": 86.4001, "RA_OF_ASC_NODE": 56.8393, "ARG_OF_PERICENTER": 120.8294, "MEAN_ANOMALY": 239.4201, "EPHEMERIS_TYPE": 0, "CLASSIFICATION_TYPE": "U", "NORAD_CAT_ID": 33773, "ELEMENT_SET_NO": 999, "REV_AT_EPOCH": 88475, "BSTAR": 0.00023085818, "MEAN_MOTION_DOT": 7.98e-06, "MEAN_MOTION_DDOT": 0}, "tle": {"line1": "1 33773U 97051L   25355.58942798  .00000798  00000+0  23086-3 0  9992", "line2": "2 33773  86.4001  56.8393 0013137 120.8294 239.4201 14.43274227884758"}}, "geometry": {"type": "Point", "coordinates": [52.78494883729142, -47.72101948669447]}}, {"type": "Feature", "properties": {"norad_id": 33775, "name": "IRIDIUM 33 DEB", "group": "iridium-33-debris", "lat": -22.53881579377908, "lon": 44.17757362729331, "alt_km": 768.3848967877802, "timestamp": "2025-12-21T18:54:58.880482+00:00", "meta": {"OBJECT_NAME": "IRIDIUM 33 DEB", "OBJECT_ID": "1997-051N", "EPOCH": "2025-12-21T14:37:50.869920", "MEAN_MOTION": 14.41485837, "ECCENTRICITY": 0.00150882, "INCLINATION": 86.3627, "RA_OF_ASC_NODE": 45.7665, "ARG_OF_PERICENTER": 128.1119, "MEAN_ANOMALY": 3.4564, "EPHEMERIS_TYPE": 0, "CLASSIFICATION_TYPE": "U", "NORAD_CAT_ID": 33775, "ELEMENT_SET_NO": 999, "REV_AT_EPOCH": 88268, "BSTAR": 0.00024417836, "MEAN_MOTION_DOT": 8.13e-06, "MEAN_MOTION_DDOT": 0}, "tle": {"line1": "1 33775U 97051N   25355.60961655  .00000813  00000+0  24418-3 0  9998", "line2": "2 33775  86.3627  45.7665 0015088 128.1119   3.4564 14.41485837882686"}}, "geometry": {"type": "Point", "coordinates": [44.17757362729331, -22.53881579377908]}}, {"type": "Feature", "properties": {"norad_id": 33776, "name": "IRIDIUM 33 DEB", "group": "iridium-33-debris", "lat": 77.53959656463464, "lon": -119.56150683768891, "alt_km": 751.5263199170085, "timestamp": "2025-12-21T18:54:58.880495+00:00", "meta": {"OBJECT_NAME": "IRIDIUM 33 DEB", "OBJECT_ID": "1997-051P", "EPOCH": "2025-12-21T05:21:01.511424", "MEAN_MOTION": 14.38249202, "ECCENTRICITY": 0.0015311, "INCLINATION": 86.4033, "RA_OF_ASC_NODE": 77.2134, "ARG_OF_PERICENTER": 163.1939, "MEAN_ANOMALY": 254.0485, "EPHEMERIS_TYPE": 0, "CLASSIFICATION_TYPE": "U", "NORAD_CAT_ID": 33776, "ELEMENT_SET_NO": 999, "REV_AT_EPOCH": 88204, "BSTAR": 0.00022734, "MEAN_MOTION_DOT": 7.11e-06, "MEAN_MOTION_DDOT": 0}, "tle": {"line1": "1 33776U 97051P   25355.22293416  .00000711  00000+0  22734-3 0  9996", "line2": "2 33776  86.4033  77.2134 0015311 163.1939 254.0485 14.38249202882044"}}, "geometry": {"type": "Point", "coordinates": [-119.56150683768891, 77.53959656463464]}}, {"type": "Feature", "properties": {"norad_id": 33777, "name": "IRIDIUM 33 DEB", "group": "iridium-33-debris", "lat": 83.1983327692766, "lon": 179.18224791087715, "alt_km": 701.5019072104278, "timestamp": "2025-12-21T18:54:58.880506+00:00", "meta": {"OBJECT_NAME": "IRIDIUM 33 DEB", "OBJECT_ID": "1997-051Q", "EPOCH": "2025-12-21T13:31:41.929536", "MEAN_MOTION": 14.55669483, "ECCENTRICITY": 0.00058959, "INCLINATION": 86.3773, "RA_OF_ASC_NODE": 31.3646, "ARG_OF_PERICENTER": 210.8728, "MEAN_ANOMALY": 149.2134, "EPHEMERIS_TYPE": 0, "CLASSIFICATION_TYPE": "U", "NORAD_CAT_ID": 33777, "ELEMENT_SET_NO": 999, "REV_AT_EPOCH": 88662, "BSTAR": 0.00059970111, "MEAN_MOTION_DOT": 2.64e-05, "MEAN_MOTION_DDOT": 0}, "tle": {"line1": "1 33777U 97051Q   25355.56367974  .00002640  00000+0  59970-3 0  9990", "line2": "2 33777  86.3773  31.3646 0005895 210.8728 149.2134 14.55669483886626"}}, "geometry": {"type": "Point", "coordinates": [179.18224791087715, 83.1983327692766]}}, {"type": "Feature", "properties": {"norad_id": 33850, "name": "IRIDIUM 33 DEB", "group": "iridium-33-debris", "lat": -19.554445462912444, "lon": 24.986112943675167, "alt_km": 764.8764919988707, "timestamp": "2025-12-21T18:54:58.880519+00:00", "meta": {"OBJECT_NAME": "IRIDIUM 33 DEB", "OBJECT_ID": "1997-051T", "EPOCH": "2025-12-21T12:54:25.325568", "MEAN_MOTION": 14.4216572, "ECCENTRICITY": 0.00130293, "INCLINATION": 86.3408, "RA_OF_ASC_NODE": 26.3962, "ARG_OF_PERICENTER": 134.7554, "MEAN_ANOMALY": 346.6938, "EPHEMERIS_TYPE": 0, "CLASSIFICATION_TYPE": "U", "NORAD_CAT_ID": 33850, "ELEMENT_SET_NO": 999, "REV_AT_EPOCH": 88279, "BSTAR": 0.00030357281, "MEAN_MOTION_DOT": 1.019e-05, "MEAN_MOTION_DDOT": 0}, "tle": {"line1": "1 33850U 97051T   25355.53779312  .00001019  00000+0  30357-3 0  9999", "line2": "2 33850  86.3408  26.3962 0013029 134.7554 346.6938 14.42165720882797"}}, "geometry": {"type": "Point", "coordinates": [24.986112943675167, -19.554445462912444]}}, {"type": "Feature", "properties": {"norad_id": 33853, "name": "IRIDIUM 33 DEB", "group": "iridium-33-debris", "lat": 41.99715684627993, "lon": -10.544844974165263, "alt_km": 1039.5242746183676, "timestamp": "2025-12-21T18:54:58.880530+00:00", "meta": {"OBJECT_NAME": "IRIDIUM 33 DEB", "OBJECT_ID": "1997-051W", "EPOCH": "2025-12-20T22:14:35.888928", "MEAN_MOTION": 13.9910315, "ECCENTRICITY": 0.0207332, "INCLINATION": 85.9999, "RA_OF_ASC_NODE": 346.2208, "ARG_OF_PERICENTER": 210.5493, "MEAN_ANOMALY": 176.3282, "EPHEMERIS_TYPE": 0, "CLASSIFICATION_TYPE": "U", "NORAD_CAT_ID": 33853, "ELEMENT_SET_NO": 999, "REV_AT_EPOCH": 85460, "BSTAR": 0.0010168, "MEAN_MOTION_DOT": 1.786e-05, "MEAN_MOTION_DDOT": 0}, "tle": {"line1": "1 33853U 97051W   25354.92680427  .00001786  00000+0  10168-2 0  9990", "line2": "2 33853  85.9999 346.2208 0207332 210.5493 176.3282 13.99103150854603"}}, "geometry": {"type": "Point", "coordinates": [-10.544844974165263, 41.99715684627993]}}, {"type": "Feature", "properties": {"norad_id": 33860, "name": "IRIDIUM 33 DEB", "group": "iridium-33-debris", "lat": 16.14736349966947, "lon": 24.282136438652394, "alt_km": 667.232871053071, "timestamp": "2025-12-21T18:54:58.880542+00:00", "meta": {"OBJECT_NAME": "IRIDIUM 33 DEB", "OBJECT_ID": "1997-051AD", "EPOCH": "2025-12-21T13:01:46.627392", "MEAN_MOTION": 14.67463908, "ECCENTRICITY": 0.00063803, "INCLINATION": 86.3822, "RA_OF_ASC_NODE": 23.3411, "ARG_OF_PERICENTER": 324.1868, "MEAN_ANOMALY": 197.1057, "EPHEMERIS_TYPE": 0, "CLASSIFICATION_TYPE": "U", "NORAD_CAT_ID": 33860, "ELEMENT_SET_NO": 999, "REV_AT_EPOCH": 88851, "BSTAR": 0.00083483407, "MEAN_MOTION_DOT": 4.749e-05, "MEAN_MOTION_DDOT": 0}, "tle": {"line1": "1 33860U 97051AD  25355.54290078  .00004749  00000+0  83483-3 0  9999", "line2": "2 33860  86.3822  23.3411 0006380 324.1868 197.1057 14.67463908888512"}}, "geometry": {"type": "Point", "coordinates": [24.282136438652394, 16.14736349966947]}}, {"type": "Feature", "properties": {"norad_id": 33862, "name": "IRIDIUM 33 DEB", "group": "iridium-33-debris", "lat": 58.54619684957444, "lon": -152.3547796730293, "alt_km": 651.6944110882814, "timestamp": "2025-12-21T18:54:58.880552+00:00", "meta": {"OBJECT_NAME": "IRIDIUM 33 DEB", "OBJECT_ID": "1997-051AF", "EPOCH": "2025-12-21T13:59:31.257888", "MEAN_MOTION": 14.69601315, "ECCENTRICITY": 0.00525537, "INCLINATION": 86.4078, "RA_OF_ASC_NODE": 33.6303, "ARG_OF_PERICENTER": 39.5195, "MEAN_ANOMALY": 76.2806, "EPHEMERIS_TYPE": 0, "CLASSIFICATION_TYPE": "U", "NORAD_CAT_ID": 33862, "ELEMENT_SET_NO": 999, "REV_AT_EPOCH": 88953, "BSTAR": 0.0010364173, "MEAN_MOTION_DOT": 6.314e-05, "MEAN_MOTION_DDOT": 0}, "tle": {"line1": "1 33862U 97051AF  25355.58300067  .00006314  00000+0  10364-2 0  9992", "line2": "2 33862  86.4078  33.6303 0052553  39.5195  76.2806 14.69601315889535"}}, "geometry": {"type": "Point", "coordinates": [-152.3547796730293, 58.54619684957444]}}, {"type": "Feature", "properties": {"norad_id": 33866, "name": "IRIDIUM 33 DEB", "group": "iridium-33-debris", "lat": -7.540574155946335, "lon": -90.30149025259105, "alt_km": 763.1099246149806, "timestamp": "2025-12-21T18:54:58.880579+00:00", "meta": {"OBJECT_NAME": "IRIDIUM 33 DEB", "OBJECT_ID": "1997-051AK", "EPOCH": "2025-12-21T06:30:23.838336", "MEAN_MOTION": 14.25298734, "ECCENTRICITY": 0.0115015, "INCLINATION": 86.3001, "RA_OF_ASC_NODE": 89.4265, "ARG_OF_PERICENTER": 134.3497, "MEAN_ANOMALY": 280.5396, "EPHEMERIS_TYPE": 0, "CLASSIFICATION_TYPE": "U", "NORAD_CAT_ID": 33866, "ELEMENT_SET_NO": 999, "REV_AT_EPOCH": 86932, "BSTAR": 0.00042898, "MEAN_MOTION_DOT": 1.102e-05, "MEAN_MOTION_DDOT": 0}, "tle": {"line1": "1 33866U 97051AK  25355.27110924  .00001102  00000+0  42898-3 0  9991", "line2": "2 33866  86.3001  89.4265 0115015 134.3497 280.5396 14.25298734869320"}}, "geometry": {"type": "Point", "coordinates": [-90.30149025259105, -7.540574155946335]}}]}